O3B MPOWER F1           
1 54755U 22174A   23292.83858064 -.00000014  00000+0  00000+0 0  9996
2 54755   0.0508  18.8965 0005191 204.4900  72.1072  5.00118364 16759
